ORBCOMM FM37            
1 33064U 08031E   24338.33157439  .00004342  00000+0  61850-3 0  9998
2 33064  48.4373 193.8274 0006260 248.7295 281.7290 14.78345994885051
ORBCOMM FM40            
1 33065U 08031F   24338.55878545  .00004829  00000+0  65574-3 0  9998
2 33065  48.4393 179.7901 0007599 259.0359 126.6911 14.80185588885169
VESSELSAT 1             
1 37840U 11058C   24338.25306853  .00000561  00000+0  16141-3 0  9996
2 37840  19.9604 199.4211 0013649 191.0530 168.9575 14.11272830678597
ORBCOMM FM109           
1 40086U 14040A   24338.38748267  .00002152  00000+0  50405-3 0  9998
2 40086  47.0016 220.5963 0001847 144.1644 215.9365 14.57652168552490
ORBCOMM FM107           
1 40087U 14040B   24338.15101170  .00002064  00000+0  48566-3 0  9997
2 40087  47.0034 222.7483 0000991 116.1030 243.9958 14.57582205552537
ORBCOMM FM106           
1 40088U 14040C   24338.55827463  .00003351  00000+0  60357-3 0  9994
2 40088  47.0606  58.3790 0018389 240.9193 118.9856 14.68425388554713
ORBCOMM FM111           
1 40089U 14040D   24338.48827380  .00007562  00000+0  90934-3 0  9997
2 40089  47.0032 294.5786 0031663 337.0368  22.9111 14.84234152561135
ORBCOMM FM104           
1 40090U 14040E   24338.47714166  .00002240  00000+0  54109-3 0  9997
2 40090  47.0043 252.5079 0016570  29.7058 330.4764 14.56032232552099
