<?xml version="1.0" encoding="UTF-8"?>
<ndm xmlns:xsi="http://www.w3.org/2001/XMLSchema-instance" xsi:noNamespaceSchemaLocation="https://sanaregistry.org/r/ndmxml_unqualified/ndmxml-2.0.0-master-2.0.xsd">
<omm id="CCSDS_OMM_VERS" version="2.0">
<header><CREATION_DATE/><ORIGINATOR/></header><body><segment><metadata><OBJECT_NAME>ORBCOMM FM37</OBJECT_NAME><OBJECT_ID>2008-031E</OBJECT_ID><CENTER_NAME>EARTH</CENTER_NAME><REF_FRAME>TEME</REF_FRAME><TIME_SYSTEM>UTC</TIME_SYSTEM><MEAN_ELEMENT_THEORY>SGP4</MEAN_ELEMENT_THEORY></metadata><data><meanElements><EPOCH>2024-12-03T07:57:28.027296</EPOCH><MEAN_MOTION>14.78345994</MEAN_MOTION><ECCENTRICITY>.000626</ECCENTRICITY><INCLINATION>48.4373</INCLINATION><RA_OF_ASC_NODE>193.8274</RA_OF_ASC_NODE><ARG_OF_PERICENTER>248.7295</ARG_OF_PERICENTER><MEAN_ANOMALY>281.7290</MEAN_ANOMALY></meanElements><tleParameters><EPHEMERIS_TYPE>0</EPHEMERIS_TYPE><CLASSIFICATION_TYPE>U</CLASSIFICATION_TYPE><NORAD_CAT_ID>33064</NORAD_CAT_ID><ELEMENT_SET_NO>999</ELEMENT_SET_NO><REV_AT_EPOCH>88505</REV_AT_EPOCH><BSTAR>.6185E-3</BSTAR><MEAN_MOTION_DOT>.4342E-4</MEAN_MOTION_DOT><MEAN_MOTION_DDOT>0</MEAN_MOTION_DDOT></tleParameters></data></segment></body></omm>
<omm id="CCSDS_OMM_VERS" version="2.0">
<header><CREATION_DATE/><ORIGINATOR/></header><body><segment><metadata><OBJECT_NAME>ORBCOMM FM40</OBJECT_NAME><OBJECT_ID>2008-031F</OBJECT_ID><CENTER_NAME>EARTH</CENTER_NAME><REF_FRAME>TEME</REF_FRAME><TIME_SYSTEM>UTC</TIME_SYSTEM><MEAN_ELEMENT_THEORY>SGP4</MEAN_ELEMENT_THEORY></metadata><data><meanElements><EPOCH>2024-12-03T13:24:39.062880</EPOCH><MEAN_MOTION>14.80185588</MEAN_MOTION><ECCENTRICITY>.0007599</ECCENTRICITY><INCLINATION>48.4393</INCLINATION><RA_OF_ASC_NODE>179.7901</RA_OF_ASC_NODE><ARG_OF_PERICENTER>259.0359</ARG_OF_PERICENTER><MEAN_ANOMALY>126.6911</MEAN_ANOMALY></meanElements><tleParameters><EPHEMERIS_TYPE>0</EPHEMERIS_TYPE><CLASSIFICATION_TYPE>U</CLASSIFICATION_TYPE><NORAD_CAT_ID>33065</NORAD_CAT_ID><ELEMENT_SET_NO>999</ELEMENT_SET_NO><REV_AT_EPOCH>88516</REV_AT_EPOCH><BSTAR>.65574E-3</BSTAR><MEAN_MOTION_DOT>.4829E-4</MEAN_MOTION_DOT><MEAN_MOTION_DDOT>0</MEAN_MOTION_DDOT></tleParameters></data></segment></body></omm>
<omm id="CCSDS_OMM_VERS" version="2.0">
<header><CREATION_DATE/><ORIGINATOR/></header><body><segment><metadata><OBJECT_NAME>VESSELSAT 1</OBJECT_NAME><OBJECT_ID>2011-058C</OBJECT_ID><CENTER_NAME>EARTH</CENTER_NAME><REF_FRAME>TEME</REF_FRAME><TIME_SYSTEM>UTC</TIME_SYSTEM><MEAN_ELEMENT_THEORY>SGP4</MEAN_ELEMENT_THEORY></metadata><data><meanElements><EPOCH>2024-12-03T06:04:25.120992</EPOCH><MEAN_MOTION>14.11272830</MEAN_MOTION><ECCENTRICITY>.0013649</ECCENTRICITY><INCLINATION>19.9604</INCLINATION><RA_OF_ASC_NODE>199.4211</RA_OF_ASC_NODE><ARG_OF_PERICENTER>191.0530</ARG_OF_PERICENTER><MEAN_ANOMALY>168.9575</MEAN_ANOMALY></meanElements><tleParameters><EPHEMERIS_TYPE>0</EPHEMERIS_TYPE><CLASSIFICATION_TYPE>U</CLASSIFICATION_TYPE><NORAD_CAT_ID>37840</NORAD_CAT_ID><ELEMENT_SET_NO>999</ELEMENT_SET_NO><REV_AT_EPOCH>67859</REV_AT_EPOCH><BSTAR>.16141E-3</BSTAR><MEAN_MOTION_DOT>.561E-5</MEAN_MOTION_DOT><MEAN_MOTION_DDOT>0</MEAN_MOTION_DDOT></tleParameters></data></segment></body></omm>
<omm id="CCSDS_OMM_VERS" version="2.0">
<header><CREATION_DATE/><ORIGINATOR/></header><body><segment><metadata><OBJECT_NAME>ORBCOMM FM109</OBJECT_NAME><OBJECT_ID>2014-040A</OBJECT_ID><CENTER_NAME>EARTH</CENTER_NAME><REF_FRAME>TEME</REF_FRAME><TIME_SYSTEM>UTC</TIME_SYSTEM><MEAN_ELEMENT_THEORY>SGP4</MEAN_ELEMENT_THEORY></metadata><data><meanElements><EPOCH>2024-12-03T09:17:58.502688</EPOCH><MEAN_MOTION>14.57652168</MEAN_MOTION><ECCENTRICITY>.0001847</ECCENTRICITY><INCLINATION>47.0016</INCLINATION><RA_OF_ASC_NODE>220.5963</RA_OF_ASC_NODE><ARG_OF_PERICENTER>144.1644</ARG_OF_PERICENTER><MEAN_ANOMALY>215.9365</MEAN_ANOMALY></meanElements><tleParameters><EPHEMERIS_TYPE>0</EPHEMERIS_TYPE><CLASSIFICATION_TYPE>U</CLASSIFICATION_TYPE><NORAD_CAT_ID>40086</NORAD_CAT_ID><ELEMENT_SET_NO>999</ELEMENT_SET_NO><REV_AT_EPOCH>55249</REV_AT_EPOCH><BSTAR>.50405E-3</BSTAR><MEAN_MOTION_DOT>.2152E-4</MEAN_MOTION_DOT><MEAN_MOTION_DDOT>0</MEAN_MOTION_DDOT></tleParameters></data></segment></body></omm>
<omm id="CCSDS_OMM_VERS" version="2.0">
<header><CREATION_DATE/><ORIGINATOR/></header><body><segment><metadata><OBJECT_NAME>ORBCOMM FM107</OBJECT_NAME><OBJECT_ID>2014-040B</OBJECT_ID><CENTER_NAME>EARTH</CENTER_NAME><REF_FRAME>TEME</REF_FRAME><TIME_SYSTEM>UTC</TIME_SYSTEM><MEAN_ELEMENT_THEORY>SGP4</MEAN_ELEMENT_THEORY></metadata><data><meanElements><EPOCH>2024-12-03T03:37:27.410880</EPOCH><MEAN_MOTION>14.57582205</MEAN_MOTION><ECCENTRICITY>.0000991</ECCENTRICITY><INCLINATION>47.0034</INCLINATION><RA_OF_ASC_NODE>222.7483</RA_OF_ASC_NODE><ARG_OF_PERICENTER>116.1030</ARG_OF_PERICENTER><MEAN_ANOMALY>243.9958</MEAN_ANOMALY></meanElements><tleParameters><EPHEMERIS_TYPE>0</EPHEMERIS_TYPE><CLASSIFICATION_TYPE>U</CLASSIFICATION_TYPE><NORAD_CAT_ID>40087</NORAD_CAT_ID><ELEMENT_SET_NO>999</ELEMENT_SET_NO><REV_AT_EPOCH>55253</REV_AT_EPOCH><BSTAR>.48566E-3</BSTAR><MEAN_MOTION_DOT>.2064E-4</MEAN_MOTION_DOT><MEAN_MOTION_DDOT>0</MEAN_MOTION_DDOT></tleParameters></data></segment></body></omm>
<omm id="CCSDS_OMM_VERS" version="2.0">
<header><CREATION_DATE/><ORIGINATOR/></header><body><segment><metadata><OBJECT_NAME>ORBCOMM FM106</OBJECT_NAME><OBJECT_ID>2014-040C</OBJECT_ID><CENTER_NAME>EARTH</CENTER_NAME><REF_FRAME>TEME</REF_FRAME><TIME_SYSTEM>UTC</TIME_SYSTEM><MEAN_ELEMENT_THEORY>SGP4</MEAN_ELEMENT_THEORY></metadata><data><meanElements><EPOCH>2024-12-03T13:23:54.928032</EPOCH><MEAN_MOTION>14.68425388</MEAN_MOTION><ECCENTRICITY>.0018389</ECCENTRICITY><INCLINATION>47.0606</INCLINATION><RA_OF_ASC_NODE>58.3790</RA_OF_ASC_NODE><ARG_OF_PERICENTER>240.9193</ARG_OF_PERICENTER><MEAN_ANOMALY>118.9856</MEAN_ANOMALY></meanElements><tleParameters><EPHEMERIS_TYPE>0</EPHEMERIS_TYPE><CLASSIFICATION_TYPE>U</CLASSIFICATION_TYPE><NORAD_CAT_ID>40088</NORAD_CAT_ID><ELEMENT_SET_NO>999</ELEMENT_SET_NO><REV_AT_EPOCH>55471</REV_AT_EPOCH><BSTAR>.60357E-3</BSTAR><MEAN_MOTION_DOT>.3351E-4</MEAN_MOTION_DOT><MEAN_MOTION_DDOT>0</MEAN_MOTION_DDOT></tleParameters></data></segment></body></omm>
<omm id="CCSDS_OMM_VERS" version="2.0">
<header><CREATION_DATE/><ORIGINATOR/></header><body><segment><metadata><OBJECT_NAME>ORBCOMM FM111</OBJECT_NAME><OBJECT_ID>2014-040D</OBJECT_ID><CENTER_NAME>EARTH</CENTER_NAME><REF_FRAME>TEME</REF_FRAME><TIME_SYSTEM>UTC</TIME_SYSTEM><MEAN_ELEMENT_THEORY>SGP4</MEAN_ELEMENT_THEORY></metadata><data><meanElements><EPOCH>2024-12-03T11:43:06.856320</EPOCH><MEAN_MOTION>14.84234152</MEAN_MOTION><ECCENTRICITY>.0031663</ECCENTRICITY><INCLINATION>47.0032</INCLINATION><RA_OF_ASC_NODE>294.5786</RA_OF_ASC_NODE><ARG_OF_PERICENTER>337.0368</ARG_OF_PERICENTER><MEAN_ANOMALY>22.9111</MEAN_ANOMALY></meanElements><tleParameters><EPHEMERIS_TYPE>0</EPHEMERIS_TYPE><CLASSIFICATION_TYPE>U</CLASSIFICATION_TYPE><NORAD_CAT_ID>40089</NORAD_CAT_ID><ELEMENT_SET_NO>999</ELEMENT_SET_NO><REV_AT_EPOCH>56113</REV_AT_EPOCH><BSTAR>.90934E-3</BSTAR><MEAN_MOTION_DOT>.7562E-4</MEAN_MOTION_DOT><MEAN_MOTION_DDOT>0</MEAN_MOTION_DDOT></tleParameters></data></segment></body></omm>
<omm id="CCSDS_OMM_VERS" version="2.0">
<header><CREATION_DATE/><ORIGINATOR/></header><body><segment><metadata><OBJECT_NAME>ORBCOMM FM104</OBJECT_NAME><OBJECT_ID>2014-040E</OBJECT_ID><CENTER_NAME>EARTH</CENTER_NAME><REF_FRAME>TEME</REF_FRAME><TIME_SYSTEM>UTC</TIME_SYSTEM><MEAN_ELEMENT_THEORY>SGP4</MEAN_ELEMENT_THEORY></metadata><data><meanElements><EPOCH>2024-12-03T11:27:05.039424</EPOCH><MEAN_MOTION>14.56032232</MEAN_MOTION><ECCENTRICITY>.001657</ECCENTRICITY><INCLINATION>47.0043</INCLINATION><RA_OF_ASC_NODE>252.5079</RA_OF_ASC_NODE><ARG_OF_PERICENTER>29.7058</ARG_OF_PERICENTER><MEAN_ANOMALY>330.4764</MEAN_ANOMALY></meanElements><tleParameters><EPHEMERIS_TYPE>0</EPHEMERIS_TYPE><CLASSIFICATION_TYPE>U</CLASSIFICATION_TYPE><NORAD_CAT_ID>40090</NORAD_CAT_ID><ELEMENT_SET_NO>999</ELEMENT_SET_NO><REV_AT_EPOCH>55209</REV_AT_EPOCH><BSTAR>.54109E-3</BSTAR><MEAN_MOTION_DOT>.224E-4</MEAN_MOTION_DOT><MEAN_MOTION_DDOT>0</MEAN_MOTION_DDOT></tleParameters></data></segment></body></omm>

</ndm>
